TIANMU-1 07             
1 57399U 23101A   26065.57454230  .00008352  00000+0  29795-3 0  9991
2 57399  97.2728 118.5929 0004609 142.4105 217.7458 15.29118809145964
STARLINK-35871          
1 66566U 25268K   26068.10857994  .00042095  00000+0  15307-2 0  9994
2 66566  43.0044 350.1058 0001740 286.9653  73.1008 15.27576379 17873
